street_num,city,county,state,zip
6649 N Blue Gum St,New Orleans,Orleans,LA,70116
4 B Blue Ridge Blvd,Brighton,Livingston,MI,48116
8 W Cerritos Ave #54,Bridgeport,Gloucester,NJ,8014
639 Main St,Anchorage,Anchorage,AK,99501
34 Center St,Hamilton,Butler,OH,45011
3 Mcauley Dr,Ashland,Ashland,OH,44805
7 Eads St,Chicago,Cook,IL,60632
7 W Jackson Blvd,San Jose,Santa Clara,CA,95111
5 Boston Ave #88,Sioux Falls,Minnehaha,SD,57105
228 Runamuck Pl #2808,Baltimore,Baltimore City,MD,21224
2371 Jerrold Ave,Kulpsville,Montgomery,PA,19443
37275 St  Rt 17m M,Middle Island,Suffolk,NY,11953
25 E 75th St #69,Los Angeles,Los Angeles,CA,90034
98 Connecticut Ave Nw,Chagrin Falls,Geauga,OH,44023
56 E Morehead St,Laredo,Webb,TX,78045
73 State Road 434 E,Phoenix,Maricopa,AZ,85013
69734 E Carrillo St,Mc Minnville,Warren,TN,37110
322 New Horizon Blvd,Milwaukee,Milwaukee,WI,53207
1 State Route 27,Taylor,Wayne,MI,48180
394 Manchester Blvd,Rockford,Winnebago,IL,61109
6 S 33rd St,Aston,Delaware,PA,19014
6 Greenleaf Ave,San Jose,Santa Clara,CA,95111
618 W Yakima Ave,Irving,Dallas,TX,75062
74 S Westgate St,Albany,Albany,NY,12204
3273 State St,Middlesex,Middlesex,NJ,8846
1 Central Ave,Stevens Point,Portage,WI,54481
86 Nw 66th St #8673,Shawnee,Johnson,KS,66218
2 Cedar Ave #84,Easton,Talbot,MD,21601
90991 Thorburn Ave,New York,New York,NY,10011
386 9th Ave N,Conroe,Montgomery,TX,77301
74874 Atlantic Ave,Columbus,Franklin,OH,43215
366 South Dr,Las Cruces,Dona Ana,NM,88011
45 E Liberty St,Ridgefield Park,Bergen,NJ,7660
4 Ralph Ct,Dunellen,Middlesex,NJ,8812
2742 Distribution Way,New York,New York,NY,10025
426 Wolf St,Metairie,Jefferson,LA,70002
128 Bransten Rd,New York,New York,NY,10011
17 Morena Blvd,Camarillo,Ventura,CA,93012
775 W 17th St,San Antonio,Bexar,TX,78204
6980 Dorsett Rd,Abilene,Dickinson,KS,67410
2881 Lewis Rd,Prineville,Crook,OR,97754
7219 Woodfield Rd,Overland Park,Johnson,KS,66204
1048 Main St,Fairbanks,Fairbanks North Star,AK,99708
678 3rd Ave,Miami,Miami-Dade,FL,33196
20 S Babcock St,Fairbanks,Fairbanks North Star,AK,99712
2 Lighthouse Ave,Hopkins,Hennepin,MN,55343
38938 Park Blvd,Boston,Suffolk,MA,2128
5 Tomahawk Dr,Los Angeles,Los Angeles,CA,90006
762 S Main St,Madison,Dane,WI,53711
209 Decker Dr,Philadelphia,Philadelphia,PA,19132
4486 W O St #1,New York,New York,NY,10003
39 S 7th St,Tullahoma,Coffee,TN,37388
98839 Hawthorne Blvd #6101,Columbia,Richland,SC,29201
71 San Mateo Ave,Wayne,Delaware,PA,19087
76 Brooks St #9,Flemington,Hunterdon,NJ,8822
4545 Courthouse Rd,Westbury,Nassau,NY,11590
14288 Foster Ave #4121,Jenkintown,Montgomery,PA,19046
4 Otis St,Van Nuys,Los Angeles,CA,91405
65895 S 16th St,Providence,Providence,RI,2909
14302 Pennsylvania Ave,Huntingdon Valley,Montgomery,PA,19006
201 Hawk Ct,Providence,Providence,RI,2904
53075 Sw 152nd Ter #615,Monroe Township,Middlesex,NJ,8831
59 N Groesbeck Hwy,Austin,Travis,TX,78731
2664 Lewis Rd,Littleton,Douglas,CO,80126
59 Shady Ln #53,Milwaukee,Milwaukee,WI,53214
3305 Nabell Ave #679,New York,New York,NY,10009
18 Fountain St,Anchorage,Anchorage,AK,99515
7 W 32nd St,Erie,Erie,PA,16502
2853 S Central Expy,Glen Burnie,Anne Arundel,MD,21061
74 W College St,Boise,Ada,ID,83707
701 S Harrison Rd,San Francisco,San Francisco,CA,94104
1088 Pinehurst St,Chapel Hill,Orange,NC,27514
30 W 80th St #1995,San Carlos,San Mateo,CA,94070
20932 Hedley St,Concord,Contra Costa,CA,94520
2737 Pistorio Rd #9230,London,Madison,OH,43140
74989 Brandon St,Wellsville,Allegany,NY,14895
6 Kains Ave,Baltimore,Baltimore City,MD,21215
47565 W Grand Ave,Newark,Essex,NJ,7105
4284 Dorigo Ln,Chicago,Cook,IL,60647
6794 Lake Dr E,Newark,Essex,NJ,7104
31 Douglas Blvd #950,Clovis,Curry,NM,88101
44 W 4th St,Staten Island,Richmond,NY,10309
11279 Loytan St,Jacksonville,Duval,FL,32254
69 Marquette Ave,Hayward,Alameda,CA,94545
70 W Main St,Beachwood,Cuyahoga,OH,44122
461 Prospect Pl #316,Euless,Tarrant,TX,76040
47154 Whipple Ave Nw,Gardena,Los Angeles,CA,90247
37 Alabama Ave,Evanston,Cook,IL,60201
3777 E Richmond St #900,Akron,Summit,OH,44302
3 Fort Worth Ave,Philadelphia,Philadelphia,PA,19106
4800 Black Horse Pike,Burlingame,San Mateo,CA,94010
83649 W Belmont Ave,San Gabriel,Los Angeles,CA,91776
840 15th Ave,Waco,McLennan,TX,76708
1747 Calle Amanecer #2,Anchorage,Anchorage,AK,99501
99385 Charity St #840,San Jose,Santa Clara,CA,95110
68556 Central Hwy,San Leandro,Alameda,CA,94577
55 Riverside Ave,Indianapolis,Marion,IN,46202
7140 University Ave,Rock Springs,Sweetwater,WY,82901
64 5th Ave #1153,Mc Lean,Fairfax,VA,22102
